COSMOS 2251 DEB         
1 33823U 93036BQ  17345.97302782  .00000447  00000-0  29393-3 0  9992
2 33823  73.8115 196.8201 0221784 104.8756  20.9162 13.93259317448557
